{
  "norad_id": 63197,
  "name": "STARLINK-32960",
  "history": [
    {
      "epoch": "2026-03-28T17:44:33.721152",
      "apogee_km": 483.23807947253226,
      "perigee_km": 482.66394362772553,
      "latitude_deg": 38.60473479616781,
      "longitude_deg": -149.32919871993363,
      "semi_major_axis_km": 6861.088011550129,
      "eccentricity": 4.184e-05,
      "inclination_deg": 43.0023,
      "raan_deg": 337.9028,
      "arg_perigee_deg": 31.1828,
      "mean_anomaly_deg": 328.9049,
      "mean_motion_rev_day": 15.27612757
    },
    {
      "epoch": "2026-03-29T01:35:19.821696",
      "apogee_km": 484.3326121959053,
      "perigee_km": 481.5730818594311,
      "latitude_deg": 2.67187566516697,
      "longitude_deg": -117.94464256009087,
      "semi_major_axis_km": 6861.089847027668,
      "eccentricity": 0.0002011,
      "inclination_deg": 42.9989,
      "raan_deg": 336.0563,
      "arg_perigee_deg": 238.2682,
      "mean_anomaly_deg": 121.7973,
      "mean_motion_rev_day": 15.27612144
    }
  ]
}